ENTRYSAT                
1 44429U 98067QP  19294.74120041  .00009996  00000-0  16299-3 0  9990
2 44429  51.6405  92.2423 0003411 152.0209 208.0965 15.53266843 17209
VCC C                   
1 44430U 98067QQ  19294.48382563  .00011006  00000-0  17798-3 0  9992
2 44430  51.6407  93.5236 0003567 162.7234 197.3878 15.53376602 15988
VCC B                   
1 44431U 98067QR  19295.45769288  .00007239  00000-0  12102-3 0  9991
2 44431  51.6412  88.7765 0003744 163.1896 196.9219 15.53054544 17258
